OSCAR 7 (AO-7)          
1 07530U 74089B   26061.62419284 -.00000031  00000+0  98556-4 0  9995
2 07530 101.9970  73.7380 0012032 335.8556 136.5471 12.53696261347164
PHASE 3B (AO-10)        
1 14129U 83058B   26061.53393855 -.00000164  00000+0  00000+0 0  9997
2 14129  25.9320 237.4860 6049007  86.0782 336.7646  2.05874052293290
UOSAT 2 (UO-11)         
1 14781U 84021B   26061.49035373  .00001904  00000+0  20074-3 0  9994
2 14781  97.7935  28.3556 0007769 165.2839 194.8606 14.90474551241231
LUSAT (LO-19)           
1 20442U 90005G   26061.64394796  .00000188  00000+0  83962-4 0  9997
2 20442  98.8940  80.4714 0012067 154.0285 206.1506 14.34084473887121
EYESAT A (AO-27)        
1 22825U 93061C   26061.78442457  .00000138  00000+0  69588-4 0  9995
2 22825  98.6997 129.1889 0009258  57.6274 302.5803 14.30910299691782
ITAMSAT (IO-26)         
1 22826U 93061D   26061.72552401  .00000162  00000+0  77953-4 0  9993
2 22826  98.6945 129.0367 0009566  42.3891 317.8029 14.31334105692084
RADIO ROSTO (RS15)      
1 23439U 94085A   26061.60040448 -.00000016  00000+0  75653-3 0  9994
2 23439  64.8147 115.5996 0152413  23.3657 337.4100 11.27583756283883
JAS-2 (FO-29)           
1 24278U 96046B   26061.62317689 -.00000014  00000+0  22091-4 0  9998
2 24278  98.5393 284.9983 0350132  13.0944 347.9005 13.53268404458753
TECHSAT 1B (GO-32)      
1 25397U 98043D   26061.50493037  .00000111  00000+0  68119-4 0  9997
2 25397  99.0018  51.6019 0001855 130.8341 229.2998 14.24403781436149
ISS (ZARYA)             
1 25544U 98067A   26061.54331036  .00009842  00000+0  19033-3 0  9991
2 25544  51.6317 107.6867 0008241 149.4104 210.7366 15.48401384555220
PCSAT (NO-44)           
1 26931U 01043C   26061.64344242  .00000210  00000+0  10924-3 0  9994
2 26931  67.0510 159.8353 0007022 265.3529  94.6771 14.31907768275193
SAUDISAT 1C (SO-50)     
1 27607U 02058C   26061.53568897  .00002000  00000+0  25340-3 0  9991
2 27607  64.5510  98.8982 0075068 281.9553  77.3144 14.82748605248643
CUTE-1 (CO-55)          
1 27844U 03031E   26061.53865418  .00000422  00000+0  20177-3 0  9994
2 27844  98.6778  71.4263 0010451 131.1798 229.0284 14.24259043176494
CUBESAT XI-IV (CO-57)   
1 27848U 03031J   26061.47397015  .00000370  00000+0  18145-3 0  9998
2 27848  98.6809  71.1608 0010073 147.8970 212.2824 14.23555341176199
MOZHAETS 4 (RS22)       
1 27939U 03042A   26061.87442041  .00001543  00000+0  24718-3 0  9991
2 27939  98.3425 243.2462 0010243 243.9753 247.9478 14.73229582199899
CUBESAT XI-V            
1 28895U 05043F   26061.64784810  .00002536  00000+0  40907-3 0  9995
2 28895  98.2814 215.1395 0014355 179.3571 180.7656 14.72280863 86078
