[{"OBJECT_NAME":"OSCAR 7 (AO-7)","OBJECT_ID":"1974-089B","EPOCH":"2026-03-02T14:58:50.261376","MEAN_MOTION":12.53696261,"ECCENTRICITY":0.0012032,"INCLINATION":101.997,"RA_OF_ASC_NODE":73.738,"ARG_OF_PERICENTER":335.8556,"MEAN_ANOMALY":136.5471,"EPHEMERIS_TYPE":0,"CLASSIFICATION_TYPE":"U","NORAD_CAT_ID":7530,"ELEMENT_SET_NO":999,"REV_AT_EPOCH":34716,"BSTAR":9.8556e-5,"MEAN_MOTION_DOT":-3.1e-7,"MEAN_MOTION_DDOT":0},{"OBJECT_NAME":"PHASE 3B (AO-10)","OBJECT_ID":"1983-058B","EPOCH":"2026-03-02T12:48:52.290720","MEAN_MOTION":2.05874052,"ECCENTRICITY":0.6049007,"INCLINATION":25.932,"RA_OF_ASC_NODE":237.486,"ARG_OF_PERICENTER":86.0782,"MEAN_ANOMALY":336.7646,"EPHEMERIS_TYPE":0,"CLASSIFICATION_TYPE":"U","NORAD_CAT_ID":14129,"ELEMENT_SET_NO":999,"REV_AT_EPOCH":29329,"BSTAR":0,"MEAN_MOTION_DOT":-1.64e-6,"MEAN_MOTION_DDOT":0},{"OBJECT_NAME":"UOSAT 2 (UO-11)","OBJECT_ID":"1984-021B","EPOCH":"2026-03-02T11:46:06.562272","MEAN_MOTION":14.90474551,"ECCENTRICITY":0.0007769,"INCLINATION":97.7935,"RA_OF_ASC_NODE":28.3556,"ARG_OF_PERICENTER":165.2839,"MEAN_ANOMALY":194.8606,"EPHEMERIS_TYPE":0,"CLASSIFICATION_TYPE":"U","NORAD_CAT_ID":14781,"ELEMENT_SET_NO":999,"REV_AT_EPOCH":24123,"BSTAR":0.0002007353,"MEAN_MOTION_DOT":1.904e-5,"MEAN_MOTION_DDOT":0},{"OBJECT_NAME":"LUSAT (LO-19)","OBJECT_ID":"1990-005G","EPOCH":"2026-03-02T15:27:17.103744","MEAN_MOTION":14.34084473,"ECCENTRICITY":0.0012067,"INCLINATION":98.894,"RA_OF_ASC_NODE":80.4714,"ARG_OF_PERICENTER":154.0285,"MEAN_ANOMALY":206.1506,"EPHEMERIS_TYPE":0,"CLASSIFICATION_TYPE":"U","NORAD_CAT_ID":20442,"ELEMENT_SET_NO":999,"REV_AT_EPOCH":88712,"BSTAR":8.3962e-5,"MEAN_MOTION_DOT":1.88e-6,"MEAN_MOTION_DDOT":0},{"OBJECT_NAME":"EYESAT A (AO-27)","OBJECT_ID":"1993-061C","EPOCH":"2026-03-02T18:49:34.282848","MEAN_MOTION":14.30910299,"ECCENTRICITY":0.0009258,"INCLINATION":98.6997,"RA_OF_ASC_NODE":129.1889,"ARG_OF_PERICENTER":57.6274,"MEAN_ANOMALY":302.5803,"EPHEMERIS_TYPE":0,"CLASSIFICATION_TYPE":"U","NORAD_CAT_ID":22825,"ELEMENT_SET_NO":999,"REV_AT_EPOCH":69178,"BSTAR":6.9588e-5,"MEAN_MOTION_DOT":1.38e-6,"MEAN_MOTION_DDOT":0},{"OBJECT_NAME":"ITAMSAT (IO-26)","OBJECT_ID":"1993-061D","EPOCH":"2026-03-02T17:24:45.274464","MEAN_MOTION":14.31334105,"ECCENTRICITY":0.0009566,"INCLINATION":98.6945,"RA_OF_ASC_NODE":129.0367,"ARG_OF_PERICENTER":42.3891,"MEAN_ANOMALY":317.8029,"EPHEMERIS_TYPE":0,"CLASSIFICATION_TYPE":"U","NORAD_CAT_ID":22826,"ELEMENT_SET_NO":999,"REV_AT_EPOCH":69208,"BSTAR":7.7953e-5,"MEAN_MOTION_DOT":1.62e-6,"MEAN_MOTION_DDOT":0},{"OBJECT_NAME":"RADIO ROSTO (RS15)","OBJECT_ID":"1994-085A","EPOCH":"2026-03-02T14:24:34.947072","MEAN_MOTION":11.27583756,"ECCENTRICITY":0.0152413,"INCLINATION":64.8147,"RA_OF_ASC_NODE":115.5996,"ARG_OF_PERICENTER":23.3657,"MEAN_ANOMALY":337.41,"EPHEMERIS_TYPE":0,"CLASSIFICATION_TYPE":"U","NORAD_CAT_ID":23439,"ELEMENT_SET_NO":999,"REV_AT_EPOCH":28388,"BSTAR":0.00075653,"MEAN_MOTION_DOT":-1.6e-7,"MEAN_MOTION_DDOT":0},{"OBJECT_NAME":"JAS-2 (FO-29)","OBJECT_ID":"1996-046B","EPOCH":"2026-03-02T14:57:22.483296","MEAN_MOTION":13.53268404,"ECCENTRICITY":0.0350132,"INCLINATION":98.5393,"RA_OF_ASC_NODE":284.9983,"ARG_OF_PERICENTER":13.0944,"MEAN_ANOMALY":347.9005,"EPHEMERIS_TYPE":0,"CLASSIFICATION_TYPE":"U","NORAD_CAT_ID":24278,"ELEMENT_SET_NO":999,"REV_AT_EPOCH":45875,"BSTAR":2.2091e-5,"MEAN_MOTION_DOT":-1.4e-7,"MEAN_MOTION_DDOT":0},{"OBJECT_NAME":"TECHSAT 1B (GO-32)","OBJECT_ID":"1998-043D","EPOCH":"2026-03-02T12:07:05.983968","MEAN_MOTION":14.24403781,"ECCENTRICITY":0.00018555,"INCLINATION":99.0018,"RA_OF_ASC_NODE":51.6019,"ARG_OF_PERICENTER":130.8341,"MEAN_ANOMALY":229.2998,"EPHEMERIS_TYPE":0,"CLASSIFICATION_TYPE":"U","NORAD_CAT_ID":25397,"ELEMENT_SET_NO":999,"REV_AT_EPOCH":43614,"BSTAR":6.8118618e-5,"MEAN_MOTION_DOT":1.11e-6,"MEAN_MOTION_DDOT":0},{"OBJECT_NAME":"ISS (ZARYA)","OBJECT_ID":"1998-067A","EPOCH":"2026-03-02T13:02:22.015104","MEAN_MOTION":15.48401384,"ECCENTRICITY":0.0008241,"INCLINATION":51.6317,"RA_OF_ASC_NODE":107.6867,"ARG_OF_PERICENTER":149.4104,"MEAN_ANOMALY":210.7366,"EPHEMERIS_TYPE":0,"CLASSIFICATION_TYPE":"U","NORAD_CAT_ID":25544,"ELEMENT_SET_NO":999,"REV_AT_EPOCH":55522,"BSTAR":0.00019033,"MEAN_MOTION_DOT":9.842e-5,"MEAN_MOTION_DDOT":0},{"OBJECT_NAME":"PCSAT (NO-44)","OBJECT_ID":"2001-043C","EPOCH":"2026-03-02T15:26:33.425088","MEAN_MOTION":14.31907768,"ECCENTRICITY":0.0007022,"INCLINATION":67.051,"RA_OF_ASC_NODE":159.8353,"ARG_OF_PERICENTER":265.3529,"MEAN_ANOMALY":94.6771,"EPHEMERIS_TYPE":0,"CLASSIFICATION_TYPE":"U","NORAD_CAT_ID":26931,"ELEMENT_SET_NO":999,"REV_AT_EPOCH":27519,"BSTAR":0.00010924,"MEAN_MOTION_DOT":2.1e-6,"MEAN_MOTION_DDOT":0},{"OBJECT_NAME":"SAUDISAT 1C (SO-50)","OBJECT_ID":"2002-058C","EPOCH":"2026-03-02T12:51:23.527008","MEAN_MOTION":14.82748605,"ECCENTRICITY":0.0075068,"INCLINATION":64.551,"RA_OF_ASC_NODE":98.8982,"ARG_OF_PERICENTER":281.9553,"MEAN_ANOMALY":77.3144,"EPHEMERIS_TYPE":0,"CLASSIFICATION_TYPE":"U","NORAD_CAT_ID":27607,"ELEMENT_SET_NO":999,"REV_AT_EPOCH":24864,"BSTAR":0.0002534,"MEAN_MOTION_DOT":2.0e-5,"MEAN_MOTION_DDOT":0},{"OBJECT_NAME":"CUTE-1 (CO-55)","OBJECT_ID":"2003-031E","EPOCH":"2026-03-02T12:55:39.721152","MEAN_MOTION":14.24259043,"ECCENTRICITY":0.0010451,"INCLINATION":98.6778,"RA_OF_ASC_NODE":71.4263,"ARG_OF_PERICENTER":131.1798,"MEAN_ANOMALY":229.0284,"EPHEMERIS_TYPE":0,"CLASSIFICATION_TYPE":"U","NORAD_CAT_ID":27844,"ELEMENT_SET_NO":999,"REV_AT_EPOCH":17649,"BSTAR":0.00020177,"MEAN_MOTION_DOT":4.22e-6,"MEAN_MOTION_DDOT":0},{"OBJECT_NAME":"CUBESAT XI-IV (CO-57)","OBJECT_ID":"2003-031J","EPOCH":"2026-03-02T11:22:31.020960","MEAN_MOTION":14.23555341,"ECCENTRICITY":0.00100734,"INCLINATION":98.6809,"RA_OF_ASC_NODE":71.1608,"ARG_OF_PERICENTER":147.897,"MEAN_ANOMALY":212.2824,"EPHEMERIS_TYPE":0,"CLASSIFICATION_TYPE":"U","NORAD_CAT_ID":27848,"ELEMENT_SET_NO":999,"REV_AT_EPOCH":17619,"BSTAR":0.00018145278,"MEAN_MOTION_DOT":3.7e-6,"MEAN_MOTION_DDOT":0},{"OBJECT_NAME":"MOZHAETS 4 (RS22)","OBJECT_ID":"2003-042A","EPOCH":"2026-03-02T20:59:09.923424","MEAN_MOTION":14.73229582,"ECCENTRICITY":0.0010243,"INCLINATION":98.3425,"RA_OF_ASC_NODE":243.2462,"ARG_OF_PERICENTER":243.9753,"MEAN_ANOMALY":247.9478,"EPHEMERIS_TYPE":0,"CLASSIFICATION_TYPE":"U","NORAD_CAT_ID":27939,"ELEMENT_SET_NO":999,"REV_AT_EPOCH":19989,"BSTAR":0.00024718,"MEAN_MOTION_DOT":1.543e-5,"MEAN_MOTION_DDOT":0},{"OBJECT_NAME":"CUBESAT XI-V","OBJECT_ID":"2005-043F","EPOCH":"2026-03-02T15:32:54.075840","MEAN_MOTION":14.72280863,"ECCENTRICITY":0.0014355,"INCLINATION":98.2814,"RA_OF_ASC_NODE":215.1395,"ARG_OF_PERICENTER":179.3571,"MEAN_ANOMALY":180.7656,"EPHEMERIS_TYPE":0,"CLASSIFICATION_TYPE":"U","NORAD_CAT_ID":28895,"ELEMENT_SET_NO":999,"REV_AT_EPOCH":8607,"BSTAR":0.00040907,"MEAN_MOTION_DOT":2.536e-5,"MEAN_MOTION_DDOT":0}]
